[{"OBJECT_NAME":"STARLINK-3107","OBJECT_ID":"2021-082AT","EPOCH":"2026-03-09T21:59:27.140640","MEAN_MOTION":15.10504087,"ECCENTRICITY":0.00073375,"INCLINATION":69.9932,"RA_OF_ASC_NODE":287.3824,"ARG_OF_PERICENTER":250.2407,"MEAN_ANOMALY":109.7967,"EPHEMERIS_TYPE":0,"CLASSIFICATION_TYPE":"U","NORAD_CAT_ID":49171,"ELEMENT_SET_NO":999,"REV_AT_EPOCH":24733,"BSTAR":0.001517345,"MEAN_MOTION_DOT":0.00025048,"MEAN_MOTION_DDOT":0},{"OBJECT_NAME":"STARLINK-4751","OBJECT_ID":"2022-114H","EPOCH":"2026-03-09T21:59:58.479648","MEAN_MOTION":15.08834432,"ECCENTRICITY":0.00012477,"INCLINATION":53.2165,"RA_OF_ASC_NODE":303.2516,"ARG_OF_PERICENTER":103.5502,"MEAN_ANOMALY":256.563,"EPHEMERIS_TYPE":0,"CLASSIFICATION_TYPE":"U","NORAD_CAT_ID":53825,"ELEMENT_SET_NO":999,"REV_AT_EPOCH":19286,"BSTAR":-0.00015999485,"MEAN_MOTION_DOT":-2.833e-5,"MEAN_MOTION_DDOT":0}]
